{"type": "FeatureCollection", "features": [ {"type": "Feature", "properties": {"norad_id": 43648, "name": "BEIDOU-3 M15 (C34)", "group": "gnss", "lat": 39.21573169499366, "lon": -17.484618387468384, "alt_km": 21514.731776338416, "timestamp": "2025-12-11T07:02:23.973762+00:00", "meta": {"OBJECT_NAME": "BEIDOU-3 M15 (C34)", "OBJECT_ID": "2018-078B", "EPOCH": "2025-12-09T14:32:59.144640", "MEAN_MOTION": 1.86231871, "ECCENTRICITY": 0.0003622, "INCLINATION": 54.2606, "RA_OF_ASC_NODE": 306.6314, "ARG_OF_PERICENTER": 18.0065, "MEAN_ANOMALY": 341.9965, "EPHEMERIS_TYPE": 0, "CLASSIFICATION_TYPE": "U", "NORAD_CAT_ID": 43648, "ELEMENT_SET_NO": 999, "REV_AT_EPOCH": 4864, "BSTAR": 0, "MEAN_MOTION_DOT": -7.7e-07, "MEAN_MOTION_DDOT": 0}, "tle": {"line1": "1 43648U 18078B   25343.60624010 -.00000077  00000+0  00000+0 0  9998", "line2": "2 43648  54.2606 306.6314 0003622  18.0065 341.9965  1.86231871 48642"}}, "geometry": {"type": "Point", "coordinates": [-17.484618387468384, 39.21573169499366]}}, {"type": "Feature", "properties": {"norad_id": 43683, "name": "BEIDOU-3 G1 (C59)", "group": "gnss", "lat": -1.778920225821556, "lon": -34.094447185020904, "alt_km": 35793.5877065351, "timestamp": "2025-12-11T07:02:23.973774+00:00", "meta": {"OBJECT_NAME": "BEIDOU-3 G1 (C59)", "OBJECT_ID": "2018-085A", "EPOCH": "2025-12-10T21:03:25.390080", "MEAN_MOTION": 1.00271192, "ECCENTRICITY": 0.00018216, "INCLINATION": 2.6032, "RA_OF_ASC_NODE": 103.0319, "ARG_OF_PERICENTER": 65.5339, "MEAN_ANOMALY": 7.2078, "EPHEMERIS_TYPE": 0, "CLASSIFICATION_TYPE": "U", "NORAD_CAT_ID": 43683, "ELEMENT_SET_NO": 999, "REV_AT_EPOCH": 2617, "BSTAR": 0, "MEAN_MOTION_DOT": -2.72e-06, "MEAN_MOTION_DDOT": 0}, "tle": {"line1": "1 43683U 18085A   25344.87737720 -.00000272  00000+0  00000+0 0  9995", "line2": "2 43683   2.6032 103.0319 0001821  65.5339   7.2078  1.00271192 26172"}}, "geometry": {"type": "Point", "coordinates": [-34.094447185020904, -1.778920225821556]}}, {"type": "Feature", "properties": {"norad_id": 43687, "name": "COSMOS 2529 (757)", "group": "gnss", "lat": -34.15974756501554, "lon": 38.02067481104853, "alt_km": 19119.25332101309, "timestamp": "2025-12-11T07:02:23.973785+00:00", "meta": {"OBJECT_NAME": "COSMOS 2529 (757)", "OBJECT_ID": "2018-086A", "EPOCH": "2025-12-10T01:40:33.584160", "MEAN_MOTION": 2.13101882, "ECCENTRICITY": 0.00072869, "INCLINATION": 64.2919, "RA_OF_ASC_NODE": 198.9786, "ARG_OF_PERICENTER": 254.1993, "MEAN_ANOMALY": 105.7913, "EPHEMERIS_TYPE": 0, "CLASSIFICATION_TYPE": "U", "NORAD_CAT_ID": 43687, "ELEMENT_SET_NO": 999, "REV_AT_EPOCH": 5525, "BSTAR": 0, "MEAN_MOTION_DOT": 4.4e-07, "MEAN_MOTION_DDOT": 0}, "tle": {"line1": "1 43687U 18086A   25344.06983315  .00000044  00000+0  00000+0 0  9990", "line2": "2 43687  64.2919 198.9786 0007286 254.1993 105.7913  2.13101882 55254"}}, "geometry": {"type": "Point", "coordinates": [38.02067481104853, -34.15974756501554]}}, {"type": "Feature", "properties": {"norad_id": 43706, "name": "BEIDOU-3 M17 (C36)", "group": "gnss", "lat": -41.73200360456481, "lon": 148.55106587895276, "alt_km": 21515.77276521605, "timestamp": "2025-12-11T07:02:23.973798+00:00", "meta": {"OBJECT_NAME": "BEIDOU-3 M17 (C36)", "OBJECT_ID": "2018-093A", "EPOCH": "2025-12-10T13:45:05.408064", "MEAN_MOTION": 1.86228361, "ECCENTRICITY": 0.00062551, "INCLINATION": 54.1726, "RA_OF_ASC_NODE": 188.6952, "ARG_OF_PERICENTER": 307.2652, "MEAN_ANOMALY": 234.6216, "EPHEMERIS_TYPE": 0, "CLASSIFICATION_TYPE": "U", "NORAD_CAT_ID": 43706, "ELEMENT_SET_NO": 999, "REV_AT_EPOCH": 4802, "BSTAR": 0, "MEAN_MOTION_DOT": 5.7e-07, "MEAN_MOTION_DDOT": 0}, "tle": {"line1": "1 43706U 18093A   25344.57297926  .00000057  00000+0  00000+0 0  9996", "line2": "2 43706  54.1726 188.6952 0006255 307.2652 234.6216  1.86228361 48024"}}, "geometry": {"type": "Point", "coordinates": [148.55106587895276, -41.73200360456481]}}, {"type": "Feature", "properties": {"norad_id": 43707, "name": "BEIDOU-3 M18 (C37)", "group": "gnss", "lat": 29.747016017977895, "lon": -146.9438606136723, "alt_km": 21512.627170386495, "timestamp": "2025-12-11T07:02:23.973809+00:00", "meta": {"OBJECT_NAME": "BEIDOU-3 M18 (C37)", "OBJECT_ID": "2018-093B", "EPOCH": "2025-12-09T02:08:32.306784", "MEAN_MOTION": 1.86226655, "ECCENTRICITY": 0.00062934, "INCLINATION": 54.1729, "RA_OF_ASC_NODE": 188.7377, "ARG_OF_PERICENTER": 351.6926, "MEAN_ANOMALY": 8.358, "EPHEMERIS_TYPE": 0, "CLASSIFICATION_TYPE": "U", "NORAD_CAT_ID": 43707, "ELEMENT_SET_NO": 999, "REV_AT_EPOCH": 4799, "BSTAR": 0, "MEAN_MOTION_DOT": 4.9e-07, "MEAN_MOTION_DDOT": 0}, "tle": {"line1": "1 43707U 18093B   25343.08926281  .00000049  00000+0  00000+0 0  9996", "line2": "2 43707  54.1729 188.7377 0006293 351.6926   8.3580  1.86226655 47998"}}, "geometry": {"type": "Point", "coordinates": [-146.9438606136723, 29.747016017977895]}}, {"type": "Feature", "properties": {"norad_id": 43873, "name": "GPS BIII-1  (PRN 04)", "group": "gnss", "lat": 0.7924951509232023, "lon": -80.94598342216153, "alt_km": 20087.967775861365, "timestamp": "2025-12-11T07:02:23.973821+00:00", "meta": {"OBJECT_NAME": "GPS BIII-1  (PRN 04)", "OBJECT_ID": "2018-109A", "EPOCH": "2025-12-10T13:28:44.931360", "MEAN_MOTION": 2.00553503, "ECCENTRICITY": 0.00372579, "INCLINATION": 55.5664, "RA_OF_ASC_NODE": 99.6325, "ARG_OF_PERICENTER": 194.8351, "MEAN_ANOMALY": 175.9534, "EPHEMERIS_TYPE": 0, "CLASSIFICATION_TYPE": "U", "NORAD_CAT_ID": 43873, "ELEMENT_SET_NO": 999, "REV_AT_EPOCH": 5129, "BSTAR": 0, "MEAN_MOTION_DOT": 8e-08, "MEAN_MOTION_DDOT": 0}, "tle": {"line1": "1 43873U 18109A   25344.56163115  .00000008  00000+0  00000+0 0  9996", "line2": "2 43873  55.5664  99.6325 0037257 194.8351 175.9534  2.00553503 51291"}}, "geometry": {"type": "Point", "coordinates": [-80.94598342216153, 0.7924951509232023]}}, {"type": "Feature", "properties": {"norad_id": 44204, "name": "BEIDOU-3 IGSO-1 (C38)", "group": "gnss", "lat": -56.9601796138439, "lon": -69.59505683051565, "alt_km": 35709.997571549946, "timestamp": "2025-12-11T07:02:23.973836+00:00", "meta": {"OBJECT_NAME": "BEIDOU-3 IGSO-1 (C38)", "OBJECT_ID": "2019-023A", "EPOCH": "2025-11-19T14:15:02.708640", "MEAN_MOTION": 1.00252177, "ECCENTRICITY": 0.0026966, "INCLINATION": 58.4003, "RA_OF_ASC_NODE": 39.8168, "ARG_OF_PERICENTER": 221.2202, "MEAN_ANOMALY": 126.9723, "EPHEMERIS_TYPE": 0, "CLASSIFICATION_TYPE": "U", "NORAD_CAT_ID": 44204, "ELEMENT_SET_NO": 999, "REV_AT_EPOCH": 510, "BSTAR": 0, "MEAN_MOTION_DOT": -2.26e-06, "MEAN_MOTION_DDOT": 0}, "tle": {"line1": "1 44204U 19023A   25323.59378135 -.00000226  00000+0  00000+0 0  9994", "line2": "2 44204  58.4003  39.8168 0026966 221.2202 126.9723  1.00252177  5102"}}, "geometry": {"type": "Point", "coordinates": [-69.59505683051565, -56.9601796138439]}}, {"type": "Feature", "properties": {"norad_id": 44231, "name": "BEIDOU-2 G8 (C01)", "group": "gnss", "lat": -1.6106806854983666, "lon": -29.63776274726194, "alt_km": 35751.13507550746, "timestamp": "2025-12-11T07:02:23.973851+00:00", "meta": {"OBJECT_NAME": "BEIDOU-2 G8 (C01)", "OBJECT_ID": "2019-027A", "EPOCH": "2025-12-10T21:04:40.271232", "MEAN_MOTION": 1.00268197, "ECCENTRICITY": 0.00086142, "INCLINATION": 1.6574, "RA_OF_ASC_NODE": 74.6887, "ARG_OF_PERICENTER": 255.1207, "MEAN_ANOMALY": 210.7232, "EPHEMERIS_TYPE": 0, "CLASSIFICATION_TYPE": "U", "NORAD_CAT_ID": 44231, "ELEMENT_SET_NO": 999, "REV_AT_EPOCH": 2419, "BSTAR": 0, "MEAN_MOTION_DOT": -2.43e-06, "MEAN_MOTION_DDOT": 0}, "tle": {"line1": "1 44231U 19027A   25344.87824388 -.00000243  00000+0  00000+0 0  9997", "line2": "2 44231   1.6574  74.6887 0008614 255.1207 210.7232  1.00268197 24197"}}, "geometry": {"type": "Point", "coordinates": [-29.63776274726194, -1.6106806854983666]}}, {"type": "Feature", "properties": {"norad_id": 44299, "name": "COSMOS 2534 (758)", "group": "gnss", "lat": -6.247781702091907, "lon": -164.06814814107898, "alt_km": 19123.220366873426, "timestamp": "2025-12-11T07:02:23.973862+00:00", "meta": {"OBJECT_NAME": "COSMOS 2534 (758)", "OBJECT_ID": "2019-030A", "EPOCH": "2025-12-10T14:34:24.563136", "MEAN_MOTION": 2.13102261, "ECCENTRICITY": 0.0008999, "INCLINATION": 64.3653, "RA_OF_ASC_NODE": 198.9649, "ARG_OF_PERICENTER": 283.4628, "MEAN_ANOMALY": 263.2195, "EPHEMERIS_TYPE": 0, "CLASSIFICATION_TYPE": "U", "NORAD_CAT_ID": 44299, "ELEMENT_SET_NO": 999, "REV_AT_EPOCH": 5090, "BSTAR": 0, "MEAN_MOTION_DOT": 4.7e-07, "MEAN_MOTION_DDOT": 0}, "tle": {"line1": "1 44299U 19030A   25344.60722874  .00000047  00000+0  00000+0 0  9994", "line2": "2 44299  64.3653 198.9649 0008999 283.4628 263.2195  2.13102261 50901"}}, "geometry": {"type": "Point", "coordinates": [-164.06814814107898, -6.247781702091907]}}, {"type": "Feature", "properties": {"norad_id": 44337, "name": "BEIDOU-3 IGSO-2 (C39)", "group": "gnss", "lat": 28.443593896007005, "lon": -41.63260866280451, "alt_km": 35699.23660713373, "timestamp": "2025-12-11T07:02:23.973874+00:00", "meta": {"OBJECT_NAME": "BEIDOU-3 IGSO-2 (C39)", "OBJECT_ID": "2019-035A", "EPOCH": "2025-12-08T21:18:38.600064", "MEAN_MOTION": 1.00272014, "ECCENTRICITY": 0.0037301, "INCLINATION": 55.2241, "RA_OF_ASC_NODE": 160.5341, "ARG_OF_PERICENTER": 202.3504, "MEAN_ANOMALY": 154.1975, "EPHEMERIS_TYPE": 0, "CLASSIFICATION_TYPE": "U", "NORAD_CAT_ID": 44337, "ELEMENT_SET_NO": 999, "REV_AT_EPOCH": 2375, "BSTAR": 0, "MEAN_MOTION_DOT": -7.9e-07, "MEAN_MOTION_DDOT": 0}, "tle": {"line1": "1 44337U 19035A   25342.88794676 -.00000079  00000+0  00000+0 0  9995", "line2": "2 44337  55.2241 160.5341 0037301 202.3504 154.1975  1.00272014 23758"}}, "geometry": {"type": "Point", "coordinates": [-41.63260866280451, 28.443593896007005]}}]}